{"type":"FeatureCollection","crs":{"type":"name","properties":{"name":"EPSG:4326"}},"features":[{"type":"Feature","id":75,"geometry":{"type":"Polygon","coordinates":[[[-104.971915695062,39.7703010200568],[-104.973347056101,39.7691880623325],[-104.973343187107,39.7681640702508],[-104.973337902783,39.7679204064428],[-104.973346066285,39.7671888360338],[-104.973348559461,39.7669754047104],[-104.973352176024,39.7664939740094],[-104.973328760473,39.7660594344559],[-104.973322360171,39.7658459632523],[-104.973319406305,39.7657656517578],[-104.973328503539,39.7651466398754],[-104.973340378437,39.7645128845718],[-104.973335556266,39.7642077974563],[-104.973330660986,39.763793930096],[-104.973336473571,39.763256917335],[-104.973344513388,39.7624234276265],[-104.973340221549,39.7620476528681],[-104.973343124397,39.7617796610459],[-104.973350509764,39.7611517177092],[-104.973341897516,39.7607591095758],[-104.973337317626,39.7604217666696],[-104.973324616117,39.7595082279808],[-104.973349251691,39.7582410615944],[-104.973354898718,39.7577260092818],[-104.973363130443,39.7569851712337],[-104.973361473351,39.756377090134],[-104.973360919412,39.7557405317495],[-104.973367671702,39.7553150479111],[-104.973361190118,39.7551125561695],[-104.973360774958,39.7549310243075],[-104.973359202677,39.7545483976737],[-104.973364687062,39.7532262380376],[-104.973363359538,39.7519822876681],[-104.97335769536,39.7507239044621],[-104.973359056075,39.7494772196137],[-104.973356770265,39.7483609176381],[-104.973334341687,39.7481191250988],[-104.973335064284,39.747529103641],[-104.973338951913,39.7469641021224],[-104.973365886318,39.7459432495882],[-104.973384908124,39.7450873172117],[-104.973390360207,39.744835120401],[-104.973383172756,39.7437795337829],[-104.973980769166,39.7442320868221],[-104.974777280235,39.744835484815],[-104.976141770741,39.7459084861863],[-104.97648667457,39.7461797017146],[-104.976993304866,39.7465559967287],[-104.977544156362,39.746964399134],[-104.978177634981,39.7475008200884],[-104.978206051738,39.7475054070164],[-104.978364135068,39.7475287562991],[-104.978721536316,39.7475303399225],[-104.979885313326,39.7475354890264],[-104.98107483221,39.7475462308877],[-104.981687393223,39.7475489303341],[-104.982310622952,39.7475516735233],[-104.982948098059,39.7475517304461],[-104.983123861139,39.7475517509376],[-104.983590018427,39.7475518037733],[-104.98393671077,39.7475588153218],[-104.984217665951,39.7475583308763],[-104.984760331914,39.747547990564],[-104.984851652271,39.7475491725959],[-104.984938785924,39.7475457683077],[-104.985091068569,39.7475482721162],[-104.985218626544,39.7475558248453],[-104.985376371059,39.7475658408057],[-104.985479753424,39.7475769778966],[-104.985574129952,39.7475968682567],[-104.985675993508,39.747527652147],[-104.98610542858,39.7475267831338],[-104.987201831828,39.7475234758523],[-104.987307427566,39.7474214162399],[-104.98740027988,39.747358465168],[-104.98739847203,39.7482139330102],[-104.987396921799,39.7489125945655],[-104.987525738607,39.7490483597404],[-104.988226867915,39.7495870792344],[-104.988670733982,39.7499256455064],[-104.989101339942,39.7502542012116],[-104.989975676103,39.7509422485252],[-104.990830758177,39.7515903997388],[-104.991690824997,39.7522890101521],[-104.992143693171,39.7526169641111],[-104.992597448944,39.7529456062441],[-104.992992432934,39.7532870333838],[-104.993418351848,39.7536546726415],[-104.993827678443,39.7539810596671],[-104.994272374385,39.7543353930582],[-104.994701297971,39.754658086316],[-104.99514791645,39.7549935509498],[-104.996118952422,39.7557289781814],[-104.997019222016,39.7564696613378],[-104.997377530667,39.7567644475049],[-104.998574674099,39.7577493309749],[-104.999547640587,39.758473755867],[-104.999830776618,39.7586722740557],[-105.000104374849,39.7588367786566],[-105.000825549723,39.7592101040804],[-105.001330647518,39.7594582878538],[-105.00177819667,39.7596715668846],[-105.001893606772,39.7597612722439],[-105.003168867383,39.7604060402373],[-105.003019847392,39.7605113701502],[-105.002967977999,39.7605526732024],[-105.002882186693,39.7606123628766],[-105.002837562451,39.7606351658633],[-105.002785865635,39.7606521054633],[-105.002648703514,39.7606827530073],[-105.002518713172,39.760705194945],[-105.002462570188,39.7607221156619],[-105.002269990785,39.7607926777287],[-105.002136158458,39.7608552520152],[-105.001976521216,39.7609201198371],[-105.001857018086,39.7609683421068],[-105.001726905481,39.7610079408156],[-105.001620036631,39.7610301365121],[-105.001482084147,39.7610467101001],[-105.001353104185,39.7610519976719],[-105.001208159699,39.7610513835582],[-105.001030171773,39.7610705321454],[-105.000848482834,39.761109910839],[-105.000462570587,39.7612311232849],[-105.000023906089,39.7613922598253],[-104.999811633732,39.761480235105],[-104.999596615402,39.7615791794701],[-104.999451157572,39.7616502806106],[-104.999332460339,39.761709827758],[-104.999198484186,39.7617919585123],[-104.999042212124,39.7618829160782],[-104.998971697125,39.7619196766559],[-104.998826299797,39.7619821983997],[-104.99875228902,39.762010365083],[-104.998707514934,39.7620236440866],[-104.998666737447,39.7620357371819],[-104.998558955203,39.7620610149208],[-104.998440543461,39.7620804135761],[-104.998314126178,39.7621001209151],[-104.998246599334,39.762119586281],[-104.998128775695,39.7621535492568],[-104.997909591325,39.7622126669391],[-104.997813287632,39.7622493170197],[-104.997705196937,39.7623174866512],[-104.997608767591,39.7623716369573],[-104.997485704527,39.7624194965698],[-104.99734135864,39.7624590293168],[-104.997270095648,39.762475882739],[-104.997136605129,39.7624897251134],[-104.997046580855,39.7624920644006],[-104.996955158668,39.762494440002],[-104.99677716404,39.762513925263],[-104.996599048258,39.7625502247714],[-104.996387761177,39.7626237857654],[-104.996209440263,39.7626885654245],[-104.995990015793,39.7627806211744],[-104.995670676254,39.7629165155066],[-104.995506517769,39.7629902765764],[-104.995420798881,39.7630386374984],[-104.995324339349,39.7630965604042],[-104.995175092504,39.7631988671567],[-104.99467254714,39.7635827605899],[-104.994187430475,39.7640154546013],[-104.994053112066,39.7641435605296],[-104.993930476443,39.764254558729],[-104.993799919953,39.7643541985289],[-104.993628292125,39.7644763099776],[-104.993382336674,39.7646698210492],[-104.993199768089,39.7648289453008],[-104.993087926134,39.7649228315307],[-104.992957428725,39.7650138917641],[-104.992816281972,39.7651018176129],[-104.992529558205,39.7652752478909],[-104.992392101808,39.7653446590031],[-104.992143121447,39.7654636895506],[-104.991971799359,39.7655429051214],[-104.991786287594,39.7656165692693],[-104.991652563856,39.7656616312079],[-104.991377151148,39.7657462306523],[-104.990976253585,39.7658433265226],[-104.990850636425,39.7658740102465],[-104.99072776752,39.7658937245956],[-104.990620090387,39.7659032105726],[-104.989618806524,39.7660131439088],[-104.989414970688,39.7660379964327],[-104.989103217895,39.7661052751961],[-104.988851024904,39.7661758999226],[-104.988717360448,39.7662123803187],[-104.987633655682,39.7665156707626],[-104.987540156216,39.7665418374856],[-104.986552696367,39.7668264711585],[-104.985442003405,39.7671788457378],[-104.985330597974,39.7672113018114],[-104.984605174221,39.7675368703195],[-104.984438115682,39.767639085414],[-104.984355793945,39.7677073557964],[-104.984207009159,39.7678642121613],[-104.984105655437,39.7679807837238],[-104.984022994615,39.7680950354717],[-104.983887808263,39.7683373963578],[-104.983752704428,39.7685684333865],[-104.983539236922,39.7689336433328],[-104.983411435199,39.7691389755725],[-104.983319727481,39.7692756070791],[-104.983262161902,39.7693613711912],[-104.983160677953,39.7694950991952],[-104.982835804083,39.7698913885242],[-104.98241671432,39.7703998177798],[-104.982222035516,39.7706278459945],[-104.981714179961,39.7712319656086],[-104.981583171416,39.7713885534428],[-104.981253772176,39.771793054409],[-104.981096650203,39.7719927642126],[-104.980483543341,39.7727549512731],[-104.980378427884,39.7728972398316],[-104.980176322635,39.7731653804147],[-104.980108865413,39.7732666562346],[-104.97995175972,39.7734632762018],[-104.979846662559,39.7736028189105],[-104.979772153136,39.7736954845158],[-104.979678765035,39.773815175727],[-104.979604245235,39.7739092137626],[-104.979428459077,39.7741057502227],[-104.979241173286,39.774293656896],[-104.979166769412,39.774371909794],[-104.97906641223,39.7744716668439],[-104.978939076713,39.7746111105036],[-104.97885294946,39.7747109301428],[-104.978725505977,39.7748647854044],[-104.978609667492,39.7750128582938],[-104.978523444892,39.7751253738179],[-104.978414635684,39.7753058873622],[-104.978302399377,39.7751878781789],[-104.978046077979,39.7749708982682],[-104.977180304038,39.7743027103886],[-104.976300342843,39.773631020769],[-104.975859926515,39.7732948286148],[-104.975425709064,39.7729627799382],[-104.974985275365,39.7726300157348],[-104.974550148267,39.7723017346488],[-104.973680130698,39.7716153135794],[-104.972810022108,39.7709432982171],[-104.972366834204,39.7706252670396],[-104.971915695062,39.7703010200568]]]},"properties":{"OBJECTID":75,"NBHD_ID":26,"NBHD_NAME":"Five Points","TYPOLOGY":null,"NOTES":null,"GLOBALID":"3beabc30-1ebe-47a3-89f8-d7ff5264f721","Shape__Area":49016631.8359375,"Shape__Length":32937.00554779188}},{"type":"Feature","id":72,"geometry":{"type":"Polygon","coordinates":[[[-104.987388831495,39.7401071102541],[-104.987390687512,39.7400130196941],[-104.987394648639,39.7396147214104],[-104.987413072016,39.7384319342796],[-104.987393518605,39.7368502303383],[-104.987400692912,39.7352604063219],[-104.987415396873,39.7338566062509],[-104.987402860116,39.7320446705432],[-104.987402930399,39.7304537833038],[-104.987403972278,39.7290948753113],[-104.987415487434,39.7272758350611],[-104.987423599543,39.7269440636269],[-104.987531438615,39.7270028086074],[-104.987774711591,39.7271353311402],[-104.988077564486,39.7272896985963],[-104.988313935681,39.7274194120168],[-104.988543119708,39.7275597311659],[-104.9886872175,39.7276670805239],[-104.988736833219,39.7276889151385],[-104.988792727743,39.7277028844774],[-104.988892014009,39.7277390044245],[-104.988952215571,39.72777186597],[-104.989064366722,39.7278722130282],[-104.989250851273,39.7280178359635],[-104.9893676174,39.7280948676242],[-104.989465778527,39.7281635824199],[-104.989547172082,39.7282157527079],[-104.98959932251,39.7282557853621],[-104.989648718969,39.7283078167628],[-104.989708818699,39.7283547472514],[-104.989799790342,39.7284344116084],[-104.989863328184,39.7284974852698],[-104.989926649572,39.7285904132061],[-104.989985681359,39.7286620462499],[-104.990035098867,39.7287113323494],[-104.990105747845,39.7287744368951],[-104.990171912773,39.7288430124057],[-104.990221347737,39.7288898962049],[-104.990414541497,39.7290914816223],[-104.990463919729,39.7291462577504],[-104.990527319241,39.7292285475214],[-104.990593285971,39.72932457507],[-104.990677741384,39.729445046312],[-104.990747203917,39.7295493243048],[-104.990845911022,39.7296657397226],[-104.990919818356,39.729770036838],[-104.991035184692,39.7299180944838],[-104.991116123711,39.730033403108],[-104.991249267744,39.7301815374668],[-104.991323248645,39.7302758832308],[-104.991403378828,39.730380206867],[-104.991539860787,39.730558553604],[-104.991631529658,39.7306653290267],[-104.991732638003,39.730818815158],[-104.991806567501,39.7309203663389],[-104.991859374159,39.7309930011592],[-104.991935893401,39.7311052015295],[-104.992013180275,39.7312342199408],[-104.992083595293,39.7313302655713],[-104.992132007802,39.7313960180431],[-104.992213002499,39.7315041195048],[-104.992335425775,39.7316604424666],[-104.992462194422,39.7318305096155],[-104.9925809247,39.7320060330337],[-104.992668932007,39.7321278910777],[-104.992833648536,39.7323362126134],[-104.992948944012,39.7324952491178],[-104.993033364928,39.7326215523569],[-104.993124080483,39.7327379308628],[-104.993247317465,39.732905237305],[-104.993249267403,39.7329080370904],[-104.993327377125,39.7330201973376],[-104.993425941964,39.7331575421823],[-104.993502506304,39.7332642511882],[-104.993537667612,39.7333189645685],[-104.993597469575,39.7334081002806],[-104.993734061818,39.7335727180248],[-104.993793993284,39.7336440101387],[-104.99392312147,39.733857667319],[-104.993975932273,39.7339303008594],[-104.99403570561,39.7340235542231],[-104.994122799604,39.7341495247107],[-104.994217930873,39.7342703824249],[-104.994305144511,39.7343798820454],[-104.994407467076,39.7344897894951],[-104.994452387544,39.7345472898701],[-104.994494562577,39.7346157596871],[-104.994550840766,39.7347007619035],[-104.994719015936,39.7349241944848],[-104.994800005817,39.7350340097039],[-104.994887201284,39.7351462539893],[-104.994978760179,39.7352698409099],[-104.995048333691,39.7353603903518],[-104.99518220012,39.7355342598364],[-104.9952974269,39.7357042749646],[-104.995406629756,39.7358468106586],[-104.995497281905,39.7359731386604],[-104.995599521965,39.7360950553157],[-104.995654894045,39.7361827982244],[-104.995728679707,39.7363059649943],[-104.995808628976,39.7364373945091],[-104.995879113349,39.7365252021031],[-104.995949657345,39.7366047738714],[-104.996299953266,39.7370928728944],[-104.996391460001,39.7372243510388],[-104.996482118101,39.7373503352527],[-104.996678387017,39.737624672217],[-104.996860690078,39.7378632608747],[-104.996983154442,39.7380168326578],[-104.997040098017,39.7380850321014],[-104.997064242739,39.7381139502661],[-104.997162881876,39.7382430564017],[-104.997217935622,39.7383757504586],[-104.997397195721,39.7385432914876],[-104.997464345119,39.7386008857505],[-104.99749251561,39.7386394396833],[-104.997545442135,39.7386969732082],[-104.99758683156,39.738751711989],[-104.997636123616,39.7388202111383],[-104.997660623314,39.7388748778328],[-104.997709777909,39.7389625929211],[-104.997761639002,39.7390448289699],[-104.997800359541,39.7390998999036],[-104.997870986664,39.7391684895445],[-104.997906272318,39.7392067308048],[-104.997941439517,39.739261443099],[-104.997968545008,39.7393246997879],[-104.99799648351,39.7393958530731],[-104.998021131051,39.7394299308478],[-104.998066848353,39.7395011593526],[-104.998116141664,39.739569658283],[-104.998150555383,39.7396054934614],[-104.998196528525,39.7396410349988],[-104.998263657017,39.7397017170196],[-104.998313029211,39.7397592350155],[-104.998350922999,39.7398057228241],[-104.998379016185,39.7398552571747],[-104.998410530986,39.7399236797805],[-104.99856693318,39.7401937178919],[-104.998253965336,39.7401808245635],[-104.998126304387,39.7401791073494],[-104.996936721,39.7401638384887],[-104.996512580455,39.7401583666801],[-104.996441867084,39.7401575079292],[-104.99526990934,39.7401476203815],[-104.994360104456,39.7401397466648],[-104.993534072479,39.7401353600049],[-104.992919582081,39.7401320897524],[-104.992504308079,39.7401298786891],[-104.991655142153,39.7401252009527],[-104.990423449976,39.7401168503194],[-104.990076976194,39.7401118769571],[-104.989940691429,39.7401225522469],[-104.989818775765,39.7401633330519],[-104.989677158958,39.7402378333039],[-104.989554591435,39.7403687452895],[-104.989427402334,39.7404658395095],[-104.989305185017,39.7405479316006],[-104.98910530186,39.7406071546063],[-104.988939662367,39.7406402365388],[-104.98875483653,39.740635676066],[-104.988534009081,39.740565238738],[-104.988532017635,39.7405640891896],[-104.988403211002,39.7404895593904],[-104.988282339706,39.7403876338495],[-104.988122549524,39.7402855351246],[-104.988102215588,39.7402736209428],[-104.98796754467,39.7401947264587],[-104.98791909249,39.7401682262015],[-104.987846263159,39.7401491313628],[-104.987768566797,39.7401300158949],[-104.987510913159,39.7401063621487],[-104.987388831495,39.7401071102541]]]},"properties":{"OBJECTID":72,"NBHD_ID":16,"NBHD_NAME":"Civic Center","TYPOLOGY":null,"NOTES":null,"GLOBALID":"d412399d-56d2-4e94-ac0e-bbe35e28e1d0","Shape__Area":8472228.0913085938,"Shape__Length":13890.045504807424}},{"type":"Feature","id":55,"geometry":{"type":"Polygon","coordinates":[[[-105.000421583231,39.7455198840416],[-105.00041452108,39.7453856692614],[-105.000411238816,39.7453472218016],[-105.000405311879,39.7451807649944],[-105.000398950026,39.7450753887305],[-105.000389081314,39.7449631344181],[-105.000365394169,39.7447938571817],[-105.000341728426,39.7446214917428],[-105.000324891587,39.7444889613735],[-105.000301595964,39.7442647804458],[-105.000295926627,39.7440622935939],[-105.000290273855,39.7438574043676],[-105.000287292479,39.7437767495304],[-105.000271044506,39.7436864300422],[-105.000254002622,39.7435827242849],[-105.000219143945,39.7434840899355],[-105.000184148867,39.7434046719703],[-105.000135066072,39.743305976973],[-105.000096495734,39.7432292889426],[-105.000044724216,39.7431336710084],[-105.000009575189,39.7430758713342],[-104.9999886186,39.7430225927335],[-104.999946589933,39.7429321637787],[-104.999908117103,39.7428417497159],[-104.999874224313,39.7427324814958],[-104.999839425845,39.7426256116413],[-104.999793861088,39.7425324220315],[-104.999744992921,39.7424038733193],[-104.999702925579,39.7423189342985],[-104.999654567239,39.7422435772806],[-104.999542335639,39.742024508286],[-104.999524818314,39.7419877161397],[-104.999487062159,39.7419216692255],[-104.999434344687,39.7418342829132],[-104.999385206041,39.7417438231164],[-104.999336145127,39.7416423830047],[-104.999298524079,39.7415574627287],[-104.99911946501,39.7412355048427],[-104.999113338125,39.7412220959091],[-104.999095774143,39.7411918229758],[-104.999074691102,39.7411563879735],[-104.999057186236,39.7411178796667],[-104.99904319742,39.7410848769383],[-104.999025729358,39.7410412213449],[-104.998979970858,39.7409754834987],[-104.998951798091,39.7409369299529],[-104.998930734811,39.7408987497986],[-104.998910619612,39.7408523377064],[-104.99888975498,39.7407863622949],[-104.998865390965,39.7407124796819],[-104.998854995429,39.7406743453921],[-104.998837549656,39.7406276012748],[-104.998816544866,39.7405811851719],[-104.998777889116,39.7405168500884],[-104.998749753496,39.7404731494069],[-104.99869427798,39.7403987906925],[-104.998623921369,39.7402921120616],[-104.998613704608,39.7402744729069],[-104.99856693318,39.7401937178919],[-104.998911720187,39.7402079190999],[-104.999066122729,39.7402143313403],[-104.999969994775,39.7402084845199],[-105.000049587937,39.7402079691361],[-105.000116937001,39.7402075330237],[-105.000145847328,39.7402068795971],[-105.0015695738,39.7401746795014],[-105.00172496505,39.740171164177],[-105.00282160754,39.7401588464055],[-105.003546923537,39.7401506979641],[-105.004125826119,39.7401493833242],[-105.004417590418,39.7401656347595],[-105.004777404987,39.7401896832034],[-105.005234368496,39.7402097421598],[-105.005886946988,39.7402383848614],[-105.006433308958,39.7402623633054],[-105.009346658439,39.7403350115877],[-105.010866674241,39.7403728869412],[-105.014577891668,39.7404483442178],[-105.01532281791,39.740466436238],[-105.017385186303,39.7405155357056],[-105.017329309292,39.740669214388],[-105.017219991066,39.7409233893382],[-105.017061721649,39.7413146258444],[-105.016593525398,39.7425593948333],[-105.0164918286,39.7428678188454],[-105.016439260919,39.7430134446613],[-105.016412176874,39.7430733859249],[-105.016337402691,39.7432161754775],[-105.01626133778,39.7433899314107],[-105.01607003536,39.7438269255184],[-105.015950316337,39.7440409067764],[-105.015844939222,39.7442377884495],[-105.01584020166,39.7442506170977],[-105.015799640175,39.7443604524927],[-105.015750508517,39.7445232499202],[-105.015730831422,39.7446690109314],[-105.015699507994,39.7449564479711],[-105.015678449584,39.7453022637072],[-105.01563021567,39.7458497433713],[-105.015621630878,39.7460628091194],[-105.015619656543,39.7463486510157],[-105.015618322142,39.7465418427271],[-105.015609275622,39.7466931377127],[-105.01559307411,39.7469792641571],[-105.015575975995,39.747266416102],[-105.015556348439,39.7475457748434],[-105.015543437106,39.7477295439412],[-105.015475253807,39.748461559896],[-105.015443920525,39.7487500258588],[-105.015374265886,39.7491800575354],[-105.015309203653,39.7494601485565],[-105.015267475215,39.7495800814351],[-105.015192523653,39.7497472331546],[-105.015158304141,39.7498098899469],[-105.015139405449,39.7498427549777],[-105.015083828962,39.7499080689524],[-105.014956766074,39.7500249048757],[-105.014781535667,39.7501641905375],[-105.0146849977,39.7502382574658],[-105.014602805071,39.7502952257143],[-105.014398479619,39.750398702518],[-105.013588126917,39.7508356257145],[-105.013498897745,39.7508812402045],[-105.013439161392,39.7509050140049],[-105.013375834737,39.7509335774709],[-105.013301860779,39.7509590083038],[-105.013111945329,39.7510354327369],[-105.012963839395,39.7511089417709],[-105.012773584864,39.7512340929472],[-105.012527907027,39.7514019083931],[-105.012233681471,39.75164638935],[-105.012054584169,39.7518288925269],[-105.011677977687,39.7521560743411],[-105.011607139714,39.7522415694902],[-105.011536270753,39.7523315257303],[-105.011487839745,39.7523913770882],[-105.011394754656,39.7524795247025],[-105.011319590057,39.7525478442555],[-105.011185462809,39.7526560678545],[-105.010824193286,39.7529503675592],[-105.010652601989,39.7530755924249],[-105.010523000288,39.7531721670061],[-105.010269197484,39.753355729081],[-105.010169156739,39.7534208556563],[-105.010020131725,39.7534974454953],[-105.009920148171,39.7535543363194],[-105.009763609015,39.7536882016494],[-105.009489391761,39.7539270019333],[-105.009397712131,39.7540068419368],[-105.009356491976,39.7540523095932],[-105.009330425744,39.75409235043],[-105.009271142033,39.7541778920991],[-105.009154611656,39.7543119234054],[-105.009069623876,39.7543856907066],[-105.009006163067,39.754432781586],[-105.00871932583,39.7546343899222],[-105.008629930017,39.7547026479187],[-105.008578157208,39.7547312570203],[-105.008540752827,39.7547396797375],[-105.008436662233,39.7547478239482],[-105.008344130202,39.7547560163507],[-105.008270251521,39.7547670320051],[-105.008217839532,39.7547827026077],[-105.008186492835,39.7547920755573],[-105.008186106127,39.7547826706342],[-105.008183453776,39.7547182840734],[-105.008173282485,39.7546472083261],[-105.00816687681,39.7545462936317],[-105.008132213308,39.7544174653075],[-105.008107938329,39.7543288294836],[-105.008038885271,39.7541590215393],[-105.007983111595,39.7539975049822],[-105.007948504344,39.7538607844089],[-105.007917617718,39.7537007442385],[-105.007889721569,39.7536213586033],[-105.007859023198,39.7535611781383],[-105.00782738037,39.7535088858656],[-105.007770916373,39.7534458520331],[-105.00760918328,39.7533058541987],[-105.007566716972,39.7532754788605],[-105.007510137909,39.7532289159205],[-105.007387192156,39.7531367788637],[-105.007257256759,39.7530271108291],[-105.00711580416,39.7529115610543],[-105.006968164205,39.7527908382225],[-105.006763833238,39.7526396793504],[-105.006577179494,39.7525036933388],[-105.006503787991,39.7524457357131],[-105.006445657635,39.7524017253913],[-105.006355203257,39.7523332432507],[-105.00617923024,39.7521959289875],[-105.005928997277,39.751997906661],[-105.005799037309,39.7518923554427],[-105.005707961426,39.7518205964698],[-105.005587714863,39.7517246935816],[-105.005411744879,39.7515873777383],[-105.005056184836,39.7513219960703],[-105.004897863157,39.7512039703631],[-105.004774064579,39.751107708646],[-105.004608691788,39.7509810742064],[-105.00444335597,39.7508492922143],[-105.003950667914,39.7504879318599],[-105.003784367716,39.7503671258279],[-105.003608520744,39.7502133363812],[-105.003404437814,39.7500292296576],[-105.003274449359,39.7499288222399],[-105.003214299595,39.749884987681],[-105.003055928589,39.7497748520151],[-105.002940133977,39.7496789652679],[-105.00278537872,39.7495606087553],[-105.002654415016,39.749472550246],[-105.002517227476,39.7493844656795],[-105.002291636542,39.7492249731569],[-105.002193509207,39.7491456318981],[-105.00203431083,39.7490272557709],[-105.001932571188,39.7489557918217],[-105.001795444337,39.7488594707009],[-105.001714095736,39.7487963284693],[-105.001524227187,39.7486150236807],[-105.001467773055,39.7485519869119],[-105.001405270999,39.7484642169538],[-105.00130691799,39.748291878839],[-105.001205570939,39.7481655104693],[-105.00113881723,39.7480506129692],[-105.001040845753,39.7478247433813],[-105.001017173178,39.7477779737756],[-105.000953800428,39.7476877977812],[-105.000918687444,39.7476245080924],[-105.000866310061,39.747526642079],[-105.000866042319,39.747526141789],[-105.00080748647,39.7473838263406],[-105.000769049693,39.7472879224766],[-105.000737597947,39.7472098924292],[-105.000709517577,39.7471579565743],[-105.000667331313,39.7470891459854],[-105.000626051335,39.74701793715],[-105.000594356277,39.7469742219263],[-105.000548513712,39.7469194652499],[-105.000471661034,39.7467249120861],[-105.000448240984,39.7466427982336],[-105.000423912146,39.7465634255156],[-105.000413808507,39.7464841133296],[-105.000414177635,39.7464322982075],[-105.000414478318,39.7463900908956],[-105.000442681238,39.7459255757893],[-105.000436446373,39.7458023557361],[-105.000421583231,39.7455198840416]]]},"properties":{"OBJECTID":55,"NBHD_ID":2,"NBHD_NAME":"Auraria","TYPOLOGY":null,"NOTES":null,"GLOBALID":"e03bad7f-f2b5-49c1-aa53-b0d27a306a44","Shape__Area":17995319.082519531,"Shape__Length":17704.84819617659}},{"type":"Feature","id":70,"geometry":{"type":"Polygon","coordinates":[[[-104.973412216403,39.7400299708927],[-104.97299165463,39.7400390691633],[-104.972999809768,39.7395452999685],[-104.973019073456,39.738401294569],[-104.973008305617,39.7368765909982],[-104.972998994731,39.735158007487],[-104.972978767332,39.733709440987],[-104.972979680224,39.7320499251538],[-104.972948115667,39.7304540906363],[-104.97293533762,39.7290789906636],[-104.972939045678,39.7272842794308],[-104.973506123498,39.7272837301041],[-104.97408209229,39.72728287446],[-104.97525003567,39.7272801970711],[-104.976407313643,39.7272774604228],[-104.977558464155,39.7272619883462],[-104.97877082412,39.7272625612371],[-104.979356536619,39.7272661843045],[-104.979937807551,39.7272694414939],[-104.981138648834,39.7272651349264],[-104.981750121145,39.7272709187979],[-104.982364257375,39.727277053988],[-104.982978411352,39.7272807839549],[-104.983622785043,39.7272846432054],[-104.984892960583,39.7272795737299],[-104.986149778615,39.7272778629277],[-104.987415487434,39.7272758350611],[-104.987403972278,39.7290948753113],[-104.987402930399,39.7304537833038],[-104.987402860116,39.7320446705432],[-104.987415396873,39.7338566062509],[-104.987400692912,39.7352604063219],[-104.987393518605,39.7368502303383],[-104.987413072016,39.7384319342796],[-104.987394648639,39.7396147214104],[-104.987390687512,39.7400130196941],[-104.987388831495,39.7401071102541],[-104.986258206966,39.7401140436174],[-104.986135225032,39.7400632271935],[-104.985479159964,39.7400617327974],[-104.984855986587,39.7400603789411],[-104.984223074702,39.7400534884792],[-104.983583940587,39.7400465677076],[-104.982963552851,39.7400290876187],[-104.982327060329,39.7400256029375],[-104.981727876858,39.7400260537806],[-104.981102021804,39.7400267275406],[-104.980495743777,39.7400247385901],[-104.979910803956,39.740022497652],[-104.979332091611,39.7400195955101],[-104.978742709506,39.7400169861838],[-104.978205794095,39.7400122043344],[-104.977640434145,39.7400069507946],[-104.97647586569,39.7400055502411],[-104.976096196708,39.7400148414793],[-104.975444517995,39.7400212037228],[-104.975321828154,39.7400223725196],[-104.974792001617,39.7400206950385],[-104.974151059782,39.7400178325757],[-104.973412216403,39.7400299708927]]]},"properties":{"OBJECTID":70,"NBHD_ID":9,"NBHD_NAME":"Capitol Hill","TYPOLOGY":null,"NOTES":null,"GLOBALID":"14f36913-b418-43aa-acc8-91d83c99bcff","Shape__Area":18857522.893554688,"Shape__Length":17446.226257075527}},{"type":"Feature","id":73,"geometry":{"type":"Polygon","coordinates":[[[-104.98740027988,39.747358465168],[-104.987396865762,39.7469740979751],[-104.987400795913,39.7466796858671],[-104.987407911701,39.7461927764095],[-104.987407765558,39.7459324626634],[-104.987407504977,39.7454673574069],[-104.987407278273,39.7450630982887],[-104.987419619209,39.7448342656433],[-104.987376177189,39.7433581541635],[-104.987386673731,39.7430595639292],[-104.987416583393,39.7422087507282],[-104.987411415936,39.7419535600086],[-104.987406131771,39.741692595389],[-104.98739707386,39.7414722481987],[-104.987383821613,39.7408527899192],[-104.987388831495,39.7401071102541],[-104.987510913159,39.7401063621487],[-104.987768566797,39.7401300158949],[-104.987846263159,39.7401491313628],[-104.98791909249,39.7401682262015],[-104.98796754467,39.7401947264587],[-104.988102215588,39.7402736209428],[-104.988122549524,39.7402855351246],[-104.988282339706,39.7403876338495],[-104.988403211002,39.7404895593904],[-104.988532017635,39.7405640891896],[-104.988534009081,39.740565238738],[-104.98875483653,39.740635676066],[-104.988939662367,39.7406402365388],[-104.98910530186,39.7406071546063],[-104.989305185017,39.7405479316006],[-104.989427402334,39.7404658395095],[-104.989554591435,39.7403687452895],[-104.989677158958,39.7402378333039],[-104.989818775765,39.7401633330519],[-104.989940691429,39.7401225522469],[-104.990076976194,39.7401118769571],[-104.990423449976,39.7401168503194],[-104.991655142153,39.7401252009527],[-104.992504308079,39.7401298786891],[-104.992919582081,39.7401320897524],[-104.993534072479,39.7401353600049],[-104.994360104456,39.7401397466648],[-104.99526990934,39.7401476203815],[-104.996441867084,39.7401575079292],[-104.996512580455,39.7401583666801],[-104.996936721,39.7401638384887],[-104.998126304387,39.7401791073494],[-104.998253965336,39.7401808245635],[-104.99856693318,39.7401937178919],[-104.998613704608,39.7402744729069],[-104.998623921369,39.7402921120616],[-104.99869427798,39.7403987906925],[-104.998749753496,39.7404731494069],[-104.998777889116,39.7405168500884],[-104.998816544866,39.7405811851719],[-104.998837549656,39.7406276012748],[-104.998854995429,39.7406743453921],[-104.998865390965,39.7407124796819],[-104.99888975498,39.7407863622949],[-104.998910619612,39.7408523377064],[-104.998930734811,39.7408987497986],[-104.998951798091,39.7409369299529],[-104.998979970858,39.7409754834987],[-104.999025729358,39.7410412213449],[-104.99904319742,39.7410848769383],[-104.999057186236,39.7411178796667],[-104.999074691102,39.7411563879735],[-104.999095774143,39.7411918229758],[-104.999113338125,39.7412220959091],[-104.99911946501,39.7412355048427],[-104.999298524079,39.7415574627287],[-104.999336145127,39.7416423830047],[-104.999385206041,39.7417438231164],[-104.999434344687,39.7418342829132],[-104.999487062159,39.7419216692255],[-104.999524818314,39.7419877161397],[-104.999542335639,39.742024508286],[-104.999654567239,39.7422435772806],[-104.999702925579,39.7423189342985],[-104.999744992921,39.7424038733193],[-104.999793861088,39.7425324220315],[-104.999839425845,39.7426256116413],[-104.999874224313,39.7427324814958],[-104.999908117103,39.7428417497159],[-104.999946589933,39.7429321637787],[-104.9999886186,39.7430225927335],[-105.000009575189,39.7430758713342],[-105.000044724216,39.7431336710084],[-105.000096495734,39.7432292889426],[-105.000135066072,39.743305976973],[-105.000184148867,39.7434046719703],[-105.000219143945,39.7434840899355],[-105.000254002622,39.7435827242849],[-105.000271044506,39.7436864300422],[-105.000287292479,39.7437767495304],[-105.000290273855,39.7438574043676],[-105.000295926627,39.7440622935939],[-105.000301595964,39.7442647804458],[-105.000324891587,39.7444889613735],[-105.000341728426,39.7446214917428],[-105.000365394169,39.7447938571817],[-105.000389081314,39.7449631344181],[-105.000398950026,39.7450753887305],[-105.000405311879,39.7451807649944],[-105.000411238816,39.7453472218016],[-105.00041452108,39.7453856692614],[-105.000421583231,39.7455198840416],[-105.00014873602,39.7457537782756],[-104.998958874989,39.7466659782739],[-104.99774836582,39.7476017552709],[-104.996552990166,39.7485303785992],[-104.995333576622,39.7494588863762],[-104.994127316965,39.7504083702858],[-104.992928269053,39.7513396857058],[-104.991690824997,39.7522890101521],[-104.990830758177,39.7515903997388],[-104.989975676103,39.7509422485252],[-104.989101339942,39.7502542012116],[-104.988670733982,39.7499256455064],[-104.988226867915,39.7495870792344],[-104.987525738607,39.7490483597404],[-104.987396921799,39.7489125945655],[-104.98739847203,39.7482139330102],[-104.98740027988,39.747358465168]]]},"properties":{"OBJECTID":73,"NBHD_ID":10,"NBHD_NAME":"CBD","TYPOLOGY":null,"NOTES":null,"GLOBALID":"3923a2e5-9bba-4091-937b-4868902696f6","Shape__Area":12018056.0625,"Shape__Length":13717.962639314996}},{"type":"Feature","id":71,"geometry":{"type":"Polygon","coordinates":[[[-104.973383172756,39.7437795337829],[-104.973387156355,39.7432490286936],[-104.973388730365,39.7426841971539],[-104.973392020901,39.741654050283],[-104.973412216403,39.7400299708927],[-104.974151059782,39.7400178325757],[-104.974792001617,39.7400206950385],[-104.975321828154,39.7400223725196],[-104.975444517995,39.7400212037228],[-104.976096196708,39.7400148414793],[-104.97647586569,39.7400055502411],[-104.977640434145,39.7400069507946],[-104.978205794095,39.7400122043344],[-104.978742709506,39.7400169861838],[-104.979332091611,39.7400195955101],[-104.979910803956,39.740022497652],[-104.980495743777,39.7400247385901],[-104.981102021804,39.7400267275406],[-104.981727876858,39.7400260537806],[-104.982327060329,39.7400256029375],[-104.982963552851,39.7400290876187],[-104.983583940587,39.7400465677076],[-104.984223074702,39.7400534884792],[-104.984855986587,39.7400603789411],[-104.985479159964,39.7400617327974],[-104.986135225032,39.7400632271935],[-104.986258206966,39.7401140436174],[-104.987388831495,39.7401071102541],[-104.987383821613,39.7408527899192],[-104.98739707386,39.7414722481987],[-104.987406131771,39.741692595389],[-104.987411415936,39.7419535600086],[-104.987416583393,39.7422087507282],[-104.987386673731,39.7430595639292],[-104.987376177189,39.7433581541635],[-104.987419619209,39.7448342656433],[-104.987407278273,39.7450630982887],[-104.987407504977,39.7454673574069],[-104.987407765558,39.7459324626634],[-104.987407911701,39.7461927764095],[-104.987400795913,39.7466796858671],[-104.987396865762,39.7469740979751],[-104.98740027988,39.747358465168],[-104.987307427566,39.7474214162399],[-104.987201831828,39.7475234758523],[-104.98610542858,39.7475267831338],[-104.985675993508,39.747527652147],[-104.985574129952,39.7475968682567],[-104.985479753424,39.7475769778966],[-104.985376371059,39.7475658408057],[-104.985218626544,39.7475558248453],[-104.985091068569,39.7475482721162],[-104.984938785924,39.7475457683077],[-104.984851652271,39.7475491725959],[-104.984760331914,39.747547990564],[-104.984217665951,39.7475583308763],[-104.98393671077,39.7475588153218],[-104.983590018427,39.7475518037733],[-104.983123861139,39.7475517509376],[-104.982948098059,39.7475517304461],[-104.982310622952,39.7475516735233],[-104.981687393223,39.7475489303341],[-104.98107483221,39.7475462308877],[-104.979885313326,39.7475354890264],[-104.978721536316,39.7475303399225],[-104.978364135068,39.7475287562991],[-104.978206051738,39.7475054070164],[-104.978177634981,39.7475008200884],[-104.977544156362,39.746964399134],[-104.976993304866,39.7465559967287],[-104.97648667457,39.7461797017146],[-104.976141770741,39.7459084861863],[-104.974777280235,39.744835484815],[-104.973980769166,39.7442320868221],[-104.973383172756,39.7437795337829]]]},"properties":{"OBJECTID":71,"NBHD_ID":47,"NBHD_NAME":"North Capitol Hill","TYPOLOGY":null,"NOTES":null,"GLOBALID":"c967f821-5965-488f-8254-0fd4dd6b6ee6","Shape__Area":9829084.3955078125,"Shape__Length":12487.595012796792}},{"type":"Feature","id":54,"geometry":{"type":"Polygon","coordinates":[[[-104.99856693318,39.7401937178919],[-104.998410530986,39.7399236797805],[-104.998379016185,39.7398552571747],[-104.998350922999,39.7398057228241],[-104.998313029211,39.7397592350155],[-104.998263657017,39.7397017170196],[-104.998196528525,39.7396410349988],[-104.998150555383,39.7396054934614],[-104.998116141664,39.739569658283],[-104.998066848353,39.7395011593526],[-104.998021131051,39.7394299308478],[-104.99799648351,39.7393958530731],[-104.997968545008,39.7393246997879],[-104.997941439517,39.739261443099],[-104.997906272318,39.7392067308048],[-104.997870986664,39.7391684895445],[-104.997800359541,39.7390998999036],[-104.997761639002,39.7390448289699],[-104.997709777909,39.7389625929211],[-104.997660623314,39.7388748778328],[-104.997636123616,39.7388202111383],[-104.99758683156,39.738751711989],[-104.997545442135,39.7386969732082],[-104.99749251561,39.7386394396833],[-104.997464345119,39.7386008857505],[-104.997397195721,39.7385432914876],[-104.997217935622,39.7383757504586],[-104.997162881876,39.7382430564017],[-104.997064242739,39.7381139502661],[-104.997040098017,39.7380850321014],[-104.996983154442,39.7380168326578],[-104.996860690078,39.7378632608747],[-104.996678387017,39.737624672217],[-104.996482118101,39.7373503352527],[-104.996391460001,39.7372243510388],[-104.996299953266,39.7370928728944],[-104.995949657345,39.7366047738714],[-104.995879113349,39.7365252021031],[-104.995808628976,39.7364373945091],[-104.995728679707,39.7363059649943],[-104.995654894045,39.7361827982244],[-104.995599521965,39.7360950553157],[-104.995497281905,39.7359731386604],[-104.995406629756,39.7358468106586],[-104.9952974269,39.7357042749646],[-104.99518220012,39.7355342598364],[-104.995048333691,39.7353603903518],[-104.994978760179,39.7352698409099],[-104.994887201284,39.7351462539893],[-104.994800005817,39.7350340097039],[-104.994719015936,39.7349241944848],[-104.994550840766,39.7347007619035],[-104.994494562577,39.7346157596871],[-104.994452387544,39.7345472898701],[-104.994407467076,39.7344897894951],[-104.994305144511,39.7343798820454],[-104.994217930873,39.7342703824249],[-104.994122799604,39.7341495247107],[-104.99403570561,39.7340235542231],[-104.993975932273,39.7339303008594],[-104.99392312147,39.733857667319],[-104.993793993284,39.7336440101387],[-104.993734061818,39.7335727180248],[-104.993597469575,39.7334081002806],[-104.993537667612,39.7333189645685],[-104.993502506304,39.7332642511882],[-104.993425941964,39.7331575421823],[-104.993327377125,39.7330201973376],[-104.993249267403,39.7329080370904],[-104.993247317465,39.732905237305],[-104.993124080483,39.7327379308628],[-104.993033364928,39.7326215523569],[-104.992948944012,39.7324952491178],[-104.992833648536,39.7323362126134],[-104.992668932007,39.7321278910777],[-104.9925809247,39.7320060330337],[-104.992462194422,39.7318305096155],[-104.992335425775,39.7316604424666],[-104.992213002499,39.7315041195048],[-104.992132007802,39.7313960180431],[-104.992083595293,39.7313302655713],[-104.992013180275,39.7312342199408],[-104.991935893401,39.7311052015295],[-104.991859374159,39.7309930011592],[-104.991806567501,39.7309203663389],[-104.991732638003,39.730818815158],[-104.991631529658,39.7306653290267],[-104.991539860787,39.730558553604],[-104.991403378828,39.730380206867],[-104.991323248645,39.7302758832308],[-104.991249267744,39.7301815374668],[-104.991116123711,39.730033403108],[-104.991035184692,39.7299180944838],[-104.990919818356,39.729770036838],[-104.990845911022,39.7296657397226],[-104.990747203917,39.7295493243048],[-104.990677741384,39.729445046312],[-104.990593285971,39.72932457507],[-104.990527319241,39.7292285475214],[-104.990463919729,39.7291462577504],[-104.990414541497,39.7290914816223],[-104.990221347737,39.7288898962049],[-104.990171912773,39.7288430124057],[-104.990105747845,39.7287744368951],[-104.990035098867,39.7287113323494],[-104.989985681359,39.7286620462499],[-104.989926649572,39.7285904132061],[-104.989863328184,39.7284974852698],[-104.989799790342,39.7284344116084],[-104.989708818699,39.7283547472514],[-104.989648718969,39.7283078167628],[-104.98959932251,39.7282557853621],[-104.989547172082,39.7282157527079],[-104.989465778527,39.7281635824199],[-104.9893676174,39.7280948676242],[-104.989250851273,39.7280178359635],[-104.989064366722,39.7278722130282],[-104.988952215571,39.72777186597],[-104.988892014009,39.7277390044245],[-104.988792727743,39.7277028844774],[-104.988736833219,39.7276889151385],[-104.9886872175,39.7276670805239],[-104.988543119708,39.7275597311659],[-104.988313935681,39.7274194120168],[-104.988077564486,39.7272896985963],[-104.987774711591,39.7271353311402],[-104.987531438615,39.7270028086074],[-104.987423599543,39.7269440636269],[-104.9874297021,39.7266685034999],[-104.987429989742,39.7266169701484],[-104.987435451655,39.7256383616786],[-104.988371307915,39.7256465532525],[-104.988877895693,39.7256511573137],[-104.989189875159,39.7256501102018],[-104.990281280589,39.7256572459602],[-104.990890066593,39.7256640000338],[-104.991529100231,39.7256667636547],[-104.992157468508,39.7256694777664],[-104.992823165777,39.725672349452],[-104.993420427327,39.7256749227135],[-104.994007911425,39.7256774508913],[-104.994602491942,39.7256820653366],[-104.995192628135,39.7256866580583],[-104.995793437482,39.7256902639783],[-104.996378250382,39.7256934551763],[-104.996963916488,39.7257017945821],[-104.997547009322,39.7256970799264],[-104.998043818692,39.7257019458811],[-104.998077592415,39.725702089975],[-104.998572624329,39.7257069463138],[-104.999337885207,39.7257074600197],[-104.999449874651,39.7257075933701],[-105.00014847492,39.7257081615461],[-105.000869422006,39.7257561718882],[-105.00459590016,39.7257719225201],[-105.006362422928,39.7257827038949],[-105.007003208886,39.7258155925994],[-105.00707556558,39.7258200364984],[-105.007355073459,39.7258372014475],[-105.007776493445,39.7258557440276],[-105.008050229151,39.7258636006162],[-105.008289292753,39.7258578883882],[-105.008545762457,39.7258488929953],[-105.009007222779,39.7258257124372],[-105.009039194051,39.7258241064361],[-105.009430499184,39.7257988926083],[-105.009484208352,39.7257956033235],[-105.009687015438,39.7257831830361],[-105.010725743369,39.7257740842534],[-105.011323330635,39.7257698563413],[-105.011645009979,39.725757768594],[-105.011953651566,39.7257456264853],[-105.012436262785,39.7257140695648],[-105.012990985802,39.725688888529],[-105.013044560069,39.7256864564606],[-105.013455691619,39.7256705322401],[-105.013655663799,39.7256587124456],[-105.014321255073,39.7256093204972],[-105.014812258186,39.7255728815642],[-105.015676368156,39.7255098218452],[-105.015768559304,39.725503093526],[-105.015743978981,39.7256925902762],[-105.015743602995,39.7256954897776],[-105.015716615458,39.7258710762085],[-105.015700676734,39.7259911166257],[-105.015676801039,39.7262901328787],[-105.015676352977,39.7262957421199],[-105.015659320061,39.7265743175183],[-105.015639648584,39.726848764448],[-105.015642165844,39.7269990782915],[-105.015637388167,39.7271761288677],[-105.015650403143,39.7273508510446],[-105.015675074042,39.7275108645211],[-105.015682073542,39.7275354514351],[-105.015722802687,39.7276785229947],[-105.015824127936,39.7279363094208],[-105.015919606513,39.728139852799],[-105.015985537992,39.7282458167937],[-105.016091267892,39.7283807703697],[-105.01639981062,39.728750935257],[-105.016539990958,39.7289172571512],[-105.016675588162,39.7291038067292],[-105.016734480362,39.7291997899608],[-105.016832572942,39.7294115788686],[-105.016898171725,39.7295662697449],[-105.016934753672,39.7296752016195],[-105.016956442547,39.7297525014118],[-105.016966558534,39.7298324991515],[-105.01698316745,39.7306475698363],[-105.016994557978,39.7311877487459],[-105.017014226716,39.7320748952634],[-105.017003361362,39.7329410245385],[-105.016998463165,39.7333314777626],[-105.017005634712,39.7338390389182],[-105.016995609079,39.7347785656933],[-105.017025815044,39.7352975452941],[-105.017085871911,39.7356124681665],[-105.017155054486,39.7358931123585],[-105.017212640825,39.7360505154458],[-105.017428381423,39.7364776028745],[-105.017680782376,39.7370033265526],[-105.017855835734,39.7374014212687],[-105.017953509803,39.7376763477874],[-105.01799365303,39.7377852933741],[-105.018043932856,39.7379714911692],[-105.018061737889,39.7380971597367],[-105.018060478751,39.7382804007956],[-105.018043992383,39.7384803944375],[-105.01801312428,39.7387033207782],[-105.017982373899,39.7389090896912],[-105.017963194094,39.7389834764472],[-105.01791434615,39.7391061269243],[-105.01786917906,39.7392106049477],[-105.017838454674,39.739283228596],[-105.017552274108,39.7400483270909],[-105.017465231169,39.7402953870568],[-105.017461143064,39.7403066295439],[-105.017385186303,39.7405155357056],[-105.01532281791,39.740466436238],[-105.014577891668,39.7404483442178],[-105.010866674241,39.7403728869412],[-105.009346658439,39.7403350115877],[-105.006433308958,39.7402623633054],[-105.005886946988,39.7402383848614],[-105.005234368496,39.7402097421598],[-105.004777404987,39.7401896832034],[-105.004417590418,39.7401656347595],[-105.004125826119,39.7401493833242],[-105.003546923537,39.7401506979641],[-105.00282160754,39.7401588464055],[-105.00172496505,39.740171164177],[-105.0015695738,39.7401746795014],[-105.000145847328,39.7402068795971],[-105.000116937001,39.7402075330237],[-105.000049587937,39.7402079691361],[-104.999969994775,39.7402084845199],[-104.999066122729,39.7402143313403],[-104.998911720187,39.7402079190999],[-104.99856693318,39.7401937178919]]]},"properties":{"OBJECTID":54,"NBHD_ID":41,"NBHD_NAME":"Lincoln Park","TYPOLOGY":"NEST","NOTES":null,"GLOBALID":"a58f1523-11c0-4a1b-be9a-2134aac23cf8","Shape__Area":35576104.541503906,"Shape__Length":25194.461518381802}},{"type":"Feature","id":74,"geometry":{"type":"Polygon","coordinates":[[[-104.991690824997,39.7522890101521],[-104.992928269053,39.7513396857058],[-104.994127316965,39.7504083702858],[-104.995333576622,39.7494588863762],[-104.996552990166,39.7485303785992],[-104.99774836582,39.7476017552709],[-104.998958874989,39.7466659782739],[-105.00014873602,39.7457537782756],[-105.000421583231,39.7455198840416],[-105.000436446373,39.7458023557361],[-105.000442681238,39.7459255757893],[-105.000414478318,39.7463900908956],[-105.000414177635,39.7464322982075],[-105.000413808507,39.7464841133296],[-105.000423912146,39.7465634255156],[-105.000448240984,39.7466427982336],[-105.000471661034,39.7467249120861],[-105.000548513712,39.7469194652499],[-105.000594356277,39.7469742219263],[-105.000626051335,39.74701793715],[-105.000667331313,39.7470891459854],[-105.000709517577,39.7471579565743],[-105.000737597947,39.7472098924292],[-105.000769049693,39.7472879224766],[-105.00080748647,39.7473838263406],[-105.000866042319,39.747526141789],[-105.000866310061,39.747526642079],[-105.000918687444,39.7476245080924],[-105.000953800428,39.7476877977812],[-105.001017173178,39.7477779737756],[-105.001040845753,39.7478247433813],[-105.00113881723,39.7480506129692],[-105.001205570939,39.7481655104693],[-105.00130691799,39.748291878839],[-105.001405270999,39.7484642169538],[-105.001467773055,39.7485519869119],[-105.001524227187,39.7486150236807],[-105.001714095736,39.7487963284693],[-105.001795444337,39.7488594707009],[-105.001932571188,39.7489557918217],[-105.00203431083,39.7490272557709],[-105.002193509207,39.7491456318981],[-105.002291636542,39.7492249731569],[-105.002517227476,39.7493844656795],[-105.002654415016,39.749472550246],[-105.00278537872,39.7495606087553],[-105.002940133977,39.7496789652679],[-105.003055928589,39.7497748520151],[-105.003214299595,39.749884987681],[-105.003274449359,39.7499288222399],[-105.003404437814,39.7500292296576],[-105.003608520744,39.7502133363812],[-105.003784367716,39.7503671258279],[-105.003950667914,39.7504879318599],[-105.00444335597,39.7508492922143],[-105.004608691788,39.7509810742064],[-105.004774064579,39.751107708646],[-105.004897863157,39.7512039703631],[-105.005056184836,39.7513219960703],[-105.005411744879,39.7515873777383],[-105.005587714863,39.7517246935816],[-105.005707961426,39.7518205964698],[-105.005799037309,39.7518923554427],[-105.005928997277,39.751997906661],[-105.00617923024,39.7521959289875],[-105.006355203257,39.7523332432507],[-105.006445657635,39.7524017253913],[-105.006503787991,39.7524457357131],[-105.006577179494,39.7525036933388],[-105.006763833238,39.7526396793504],[-105.006968164205,39.7527908382225],[-105.00711580416,39.7529115610543],[-105.007257256759,39.7530271108291],[-105.007387192156,39.7531367788637],[-105.007510137909,39.7532289159205],[-105.007566716972,39.7532754788605],[-105.00760918328,39.7533058541987],[-105.007770916373,39.7534458520331],[-105.00782738037,39.7535088858656],[-105.007859023198,39.7535611781383],[-105.007889721569,39.7536213586033],[-105.007917617718,39.7537007442385],[-105.007948504344,39.7538607844089],[-105.007983111595,39.7539975049822],[-105.008038885271,39.7541590215393],[-105.008107938329,39.7543288294836],[-105.008132213308,39.7544174653075],[-105.00816687681,39.7545462936317],[-105.008173282485,39.7546472083261],[-105.008183453776,39.7547182840734],[-105.008186106127,39.7547826706342],[-105.008186492835,39.7547920755573],[-105.007583783118,39.7554034615937],[-105.007154438928,39.7558906620662],[-105.007023515865,39.756047279105],[-105.0068371212,39.7562523919486],[-105.006747400183,39.7563662867804],[-105.006645936376,39.7565062123709],[-105.006597510384,39.7565643459057],[-105.006507808419,39.7566754954356],[-105.006440796582,39.7567521715383],[-105.006328523327,39.7568806372474],[-105.006175183678,39.7570632393238],[-105.006115944364,39.7571415731757],[-105.006033433657,39.7572414284224],[-105.005943770774,39.7573467442155],[-105.00586924299,39.757449378038],[-105.005838587403,39.7575093018151],[-105.0058273924,39.7575837194278],[-105.00581169342,39.7576663538926],[-105.005796061926,39.7577393807286],[-105.005755383196,39.757833577897],[-105.0056985396,39.757950354915],[-105.005653574161,39.7580218861391],[-105.005612308607,39.7580731857448],[-105.005496716794,39.7581982954238],[-105.005157239198,39.758547230326],[-105.005074926835,39.7586186041],[-105.004866531912,39.7587893054268],[-105.004728707582,39.7589143205534],[-105.004538012487,39.7590967635589],[-105.004422235169,39.7592476074207],[-105.004294713361,39.7594244820799],[-105.004249757875,39.7594942964113],[-105.004186804514,39.7595942326678],[-105.004114901042,39.7597023669924],[-105.004025229704,39.7598080240893],[-105.003917938465,39.7598902724719],[-105.003816910735,39.7599670566357],[-105.003716759837,39.7600455603254],[-105.003586348283,39.7601277107175],[-105.0034300667,39.760221419422],[-105.003168867383,39.7604060402373],[-105.001893606772,39.7597612722439],[-105.00177819667,39.7596715668846],[-105.001330647518,39.7594582878538],[-105.000825549723,39.7592101040804],[-105.000104374849,39.7588367786566],[-104.999830776618,39.7586722740557],[-104.999547640587,39.758473755867],[-104.998574674099,39.7577493309749],[-104.997377530667,39.7567644475049],[-104.997019222016,39.7564696613378],[-104.996118952422,39.7557289781814],[-104.99514791645,39.7549935509498],[-104.994701297971,39.754658086316],[-104.994272374385,39.7543353930582],[-104.993827678443,39.7539810596671],[-104.993418351848,39.7536546726415],[-104.992992432934,39.7532870333838],[-104.992597448944,39.7529456062441],[-104.992143693171,39.7526169641111],[-104.991690824997,39.7522890101521]]]},"properties":{"OBJECTID":74,"NBHD_ID":63,"NBHD_NAME":"Union Station","TYPOLOGY":null,"NOTES":null,"GLOBALID":"4c20fa4b-f8c3-413e-9940-1127e1713a8e","Shape__Area":12230779.267578125,"Shape__Length":14577.468415695766}}]}